CTC2_L_00120016-03
1 10062U 22167FC  26075.70041667  .00000000  00000+0  00000-0 0  9997
2 10062  95.0000 180.0000 0000000   0.0000   0.0000 14.51731151    14
CTC2_L_00120016-04
1 10063U 24966OD  26075.70041667  .00000000  00000+0  00000-0 0  9997
2 10063  95.0000 180.0000 0000000   0.0000  90.0000 14.51731151    14
CTC2_L_00120017-01
1 10064U 23986KK  26075.70041667  .00000000  00000+0  00000-0 0  9999
2 10064  95.0000 192.0000 0000000   0.0000 192.0000 14.51731151    11
CTC2_L_00120017-02
1 10065U 24128LS  26075.70041667  .00000000  00000+0  00000-0 0  9999
2 10065  95.0000 192.0000 0000000   0.0000 282.0000 14.51731151    12
CTC2_L_00120017-03
1 10066U 23716NN  26075.70041667  .00000000  00000+0  00000-0 0  9992
2 10066  95.0000 192.0000 0000000   0.0000  12.0000 14.51731151    14
CTC2_L_00120017-04
1 10067U 23018UI  26075.70041667  .00000000  00000+0  00000-0 0  9998
2 10067  95.0000 192.0000 0000000   0.0000 102.0000 14.51731151    15
CTC2_L_00120018-01
1 10068U 26482VY  26075.70041667  .00000000  00000+0  00000-0 0  9997
2 10068  95.0000 204.0000 0000000   0.0000 204.0000 14.51731151    13
CTC2_L_00120018-02
1 10069U 25511JM  26075.70041667  .00000000  00000+0  00000-0 0  9990
2 10069  95.0000 204.0000 0000000   0.0000 294.0000 14.51731151    13
CTC2_L_00120018-03
1 10070U 26430EB  26075.70041667  .00000000  00000+0  00000-0 0  9993
2 10070  95.0000 204.0000 0000000   0.0000  24.0000 14.51731151    16
CTC2_L_00120018-04
1 10071U 26053IL  26075.70041667  .00000000  00000+0  00000-0 0  9995
2 10071  95.0000 204.0000 0000000   0.0000 114.0000 14.51731151    17
CTC2_L_00120019-01
1 10072U 23410XA  26075.70041667  .00000000  00000+0  00000-0 0  9990
2 10072  95.0000 216.0000 0000000   0.0000 216.0000 14.51731151    14
CTC2_L_00120019-02
1 10073U 24744YJ  26075.70041667  .00000000  00000+0  00000-0 0  9992
2 10073  95.0000 216.0000 0000000   0.0000 306.0000 14.51731151    15
CTC2_L_00120019-03
1 10074U 26022TC  26075.70041667  .00000000  00000+0  00000-0 0  9994
2 10074  95.0000 216.0000 0000000   0.0000  36.0000 14.51731151    16
CTC2_L_00120019-04
1 10075U 23601QH  26075.70041667  .00000000  00000+0  00000-0 0  9995
2 10075  95.0000 216.0000 0000000   0.0000 126.0000 14.51731151    17
CTC2_L_00120020-01
1 10076U 26172TN  26075.70041667  .00000000  00000+0  00000-0 0  9992
2 10076  95.0000 228.0000 0000000   0.0000 228.0000 14.51731151    14
CTC2_L_00120020-02
1 10077U 24068FW  26075.70041667  .00000000  00000+0  00000-0 0  9995
2 10077  95.0000 228.0000 0000000   0.0000 318.0000 14.51731151    15
CTC2_L_00120020-03
1 10078U 24489JO  26075.70041667  .00000000  00000+0  00000-0 0  9993
2 10078  95.0000 228.0000 0000000   0.0000  48.0000 14.51731151    16
CTC2_L_00120020-04
1 10079U 26442DG  26075.70041667  .00000000  00000+0  00000-0 0  9995
2 10079  95.0000 228.0000 0000000   0.0000 138.0000 14.51731151    17
CTC2_L_00120021-01
1 10080U 26295AM  26075.70041667  .00000000  00000+0  00000-0 0  9993
2 10080  95.0000 240.0000 0000000   0.0000 240.0000 14.51731151    17
CTC2_L_00120021-02
1 10081U 24271TX  26075.70041667  .00000000  00000+0  00000-0 0  9996
2 10081  95.0000 240.0000 0000000   0.0000 330.0000 14.51731151    18
CTC2_L_00120021-03
1 10082U 23888WY  26075.70041667  .00000000  00000+0  00000-0 0  9990
2 10082  95.0000 240.0000 0000000   0.0000  60.0000 14.51731151    19
CTC2_L_00120021-04
1 10083U 22273ZK  26075.70041667  .00000000  00000+0  00000-0 0  9998
2 10083  95.0000 240.0000 0000000   0.0000 150.0000 14.51731151    10
CTC2_L_00120022-01
1 10084U 22929NE  26075.70041667  .00000000  00000+0  00000-0 0  9997
2 10084  95.0000 252.0000 0000000   0.0000 252.0000 14.51731151    17
CTC2_L_00120022-02
1 10085U 23089CB  26075.70041667  .00000000  00000+0  00000-0 0  9996
2 10085  95.0000 252.0000 0000000   0.0000 342.0000 14.51731151    18
CTC2_L_00120022-03
1 10086U 26350WY  26075.70041667  .00000000  00000+0  00000-0 0  9991
2 10086  95.0000 252.0000 0000000   0.0000  72.0000 14.51731151    19
CTC2_L_00120022-04
1 10087U 23014LZ  26075.70041667  .00000000  00000+0  00000-0 0  9996
2 10087  95.0000 252.0000 0000000   0.0000 162.0000 14.51731151    10
CTC2_L_00120023-01
1 10088U 23124NG  26075.70041667  .00000000  00000+0  00000-0 0  9999
2 10088  95.0000 264.0000 0000000   0.0000 264.0000 14.51731151    17
CTC2_L_00120023-02
1 10089U 22708VL  26075.70041667  .00000000  00000+0  00000-0 0  9997
2 10089  95.0000 264.0000 0000000   0.0000 354.0000 14.51731151    18
CTC2_L_00120023-03
1 10090U 22668ID  26075.70041667  .00000000  00000+0  00000-0 0  9994
2 10090  95.0000 264.0000 0000000   0.0000  84.0000 14.51731151    10
CTC2_L_00120023-04
1 10091U 23933QD  26075.70041667  .00000000  00000+0  00000-0 0  9991
2 10091  95.0000 264.0000 0000000   0.0000 174.0000 14.51731151    11
CTC2_L_00120024-01
1 10092U 25797CY  26075.70041667  .00000000  00000+0  00000-0 0  9992
2 10092  95.0000 276.0000 0000000   0.0000 276.0000 14.51731151    18
CTC2_L_00120024-02
1 10093U 24757GM  26075.70041667  .00000000  00000+0  00000-0 0  9998
2 10093  95.0000 276.0000 0000000   0.0000   6.0000 14.51731151    10
CTC2_L_00120024-03
1 10094U 23677EO  26075.70041667  .00000000  00000+0  00000-0 0  9999
2 10094  95.0000 276.0000 0000000   0.0000  96.0000 14.51731151    10
CTC2_L_00120024-04
1 10095U 22691VW  26075.70041667  .00000000  00000+0  00000-0 0  9995
2 10095  95.0000 276.0000 0000000   0.0000 186.0000 14.51731151    11
CTC2_L_00120025-01
1 10096U 23144LW  26075.70041667  .00000000  00000+0  00000-0 0  9990
2 10096  95.0000 288.0000 0000000   0.0000 288.0000 14.51731151    18
CTC2_L_00120025-02
1 10097U 24549SR  26075.70041667  .00000000  00000+0  00000-0 0  9991
2 10097  95.0000 288.0000 0000000   0.0000  18.0000 14.51731151    10
CTC2_L_00120025-03
1 10098U 26405UQ  26075.70041667  .00000000  00000+0  00000-0 0  9995
2 10098  95.0000 288.0000 0000000   0.0000 108.0000 14.51731151    11
CTC2_L_00120025-04
1 10099U 26628DB  26075.70041667  .00000000  00000+0  00000-0 0  9993
2 10099  95.0000 288.0000 0000000   0.0000 198.0000 14.51731151    11
CTC2_L_00120026-01
1 10100U 25166DM  26075.70041667  .00000000  00000+0  00000-0 0  9992
2 10100  95.0000 300.0000 0000000   0.0000 300.0000 14.51731151    14
CTC2_L_00120026-02
1 10101U 22605HR  26075.70041667  .00000000  00000+0  00000-0 0  9998
2 10101  95.0000 300.0000 0000000   0.0000  30.0000 14.51731151    15
CTC2_L_00120026-03
1 10102U 24425JT  26075.70041667  .00000000  00000+0  00000-0 0  9991
2 10102  95.0000 300.0000 0000000   0.0000 120.0000 14.51731151    16
CTC2_L_00120026-04
1 10103U 25742SK  26075.70041667  .00000000  00000+0  00000-0 0  9995
2 10103  95.0000 300.0000 0000000   0.0000 210.0000 14.51731151    17
CTC2_L_00120027-01
1 10104U 26858QN  26075.70041667  .00000000  00000+0  00000-0 0  9995
2 10104  95.0000 312.0000 0000000   0.0000 312.0000 14.51731151    14
CTC2_L_00120027-02
1 10105U 24830Q   26075.70041667  .00000000  00000+0  00000-0 0  9994
2 10105  95.0000 312.0000 0000000   0.0000  42.0000 14.51731151    15
CTC2_L_00120027-03
1 10106U 23627JO  26075.70041667  .00000000  00000+0  00000-0 0  9998
2 10106  95.0000 312.0000 0000000   0.0000 132.0000 14.51731151    16
CTC2_L_00120027-04
1 10107U 25102QI  26075.70041667  .00000000  00000+0  00000-0 0  9999
2 10107  95.0000 312.0000 0000000   0.0000 222.0000 14.51731151    17
CTC2_L_00120028-01
1 10108U 22483G   26075.70041667  .00000000  00000+0  00000-0 0  9999
2 10108  95.0000 324.0000 0000000   0.0000 324.0000 14.51731151    14
CTC2_L_00120028-02
1 10109U 22836QN  26075.70041667  .00000000  00000+0  00000-0 0  9992
2 10109  95.0000 324.0000 0000000   0.0000  54.0000 14.51731151    15
CTC2_L_00120028-03
1 10110U 22530KH  26075.70041667  .00000000  00000+0  00000-0 0  9995
2 10110  95.0000 324.0000 0000000   0.0000 144.0000 14.51731151    17
CTC2_L_00120028-04
1 10111U 26298OV  26075.70041667  .00000000  00000+0  00000-0 0  9991
2 10111  95.0000 324.0000 0000000   0.0000 234.0000 14.51731151    18
CTC2_L_00120029-01
1 10112U 25039PS  26075.70041667  .00000000  00000+0  00000-0 0  9994
2 10112  95.0000 336.0000 0000000   0.0000 336.0000 14.51731151    15
CTC2_L_00120029-02
1 10113U 26295HB  26075.70041667  .00000000  00000+0  00000-0 0  9990
2 10113  95.0000 336.0000 0000000   0.0000  66.0000 14.51731151    16
CTC2_L_00120029-03
1 10114U 24132ZL  26075.70041667  .00000000  00000+0  00000-0 0  9999
2 10114  95.0000 336.0000 0000000   0.0000 156.0000 14.51731151    17
CTC2_L_00120029-04
1 10115U 26587PF  26075.70041667  .00000000  00000+0  00000-0 0  9996
2 10115  95.0000 336.0000 0000000   0.0000 246.0000 14.51731151    18
CTC2_L_00120030-01
1 10116U 24629I   26075.70041667  .00000000  00000+0  00000-0 0  9992
2 10116  95.0000 348.0000 0000000   0.0000 348.0000 14.51731151    15
CTC2_L_00120030-02
1 10117U 24091MF  26075.70041667  .00000000  00000+0  00000-0 0  9996
2 10117  95.0000 348.0000 0000000   0.0000  78.0000 14.51731151    16
CTC2_L_00120030-03
1 10118U 22975NJ  26075.70041667  .00000000  00000+0  00000-0 0  9996
2 10118  95.0000 348.0000 0000000   0.0000 168.0000 14.51731151    17
CTC2_L_00120030-04
1 10119U 22739BA  26075.70041667  .00000000  00000+0  00000-0 0  9995
2 10119  95.0000 348.0000 0000000   0.0000 258.0000 14.51731151    18
